{
  "norad_id": 66934,
  "name": "STARLINK-36153",
  "history": [
    {
      "epoch": "2026-03-28T18:55:43.854528",
      "apogee_km": 476.06757466352883,
      "perigee_km": 474.39453045453683,
      "latitude_deg": -30.21797545049916,
      "longitude_deg": -130.88460608012974,
      "semi_major_axis_km": 6853.368052559033,
      "eccentricity": 0.00012206,
      "inclination_deg": 53.1578,
      "raan_deg": 269.547,
      "arg_perigee_deg": 88.5989,
      "mean_anomaly_deg": 271.5152,
      "mean_motion_rev_day": 15.30194647
    }
  ]
}